[{"OBJECT_NAME":"CALSPHERE 1","OBJECT_ID":"1964-063C","EPOCH":"2026-03-04T18:47:37.660992","MEAN_MOTION":13.76490538,"ECCENTRICITY":0.0023516,"INCLINATION":90.2156,"RA_OF_ASC_NODE":69.3386,"ARG_OF_PERICENTER":246.7605,"MEAN_ANOMALY":167.3058,"EPHEMERIS_TYPE":0,"CLASSIFICATION_TYPE":"U","NORAD_CAT_ID":900,"ELEMENT_SET_NO":999,"REV_AT_EPOCH":5706,"BSTAR":0.00081846,"MEAN_MOTION_DOT":8.11e-6,"MEAN_MOTION_DDOT":0},{"OBJECT_NAME":"CALSPHERE 2","OBJECT_ID":"1964-063E","EPOCH":"2026-03-04T18:30:31.497696","MEAN_MOTION":13.52891433,"ECCENTRICITY":0.0019017,"INCLINATION":90.228,"RA_OF_ASC_NODE":73.3209,"ARG_OF_PERICENTER":164.6597,"MEAN_ANOMALY":8.9346,"EPHEMERIS_TYPE":0,"CLASSIFICATION_TYPE":"U","NORAD_CAT_ID":902,"ELEMENT_SET_NO":999,"REV_AT_EPOCH":84214,"BSTAR":4.1987e-5,"MEAN_MOTION_DOT":3.7e-7,"MEAN_MOTION_DDOT":0},{"OBJECT_NAME":"LCS 1","OBJECT_ID":"1965-034C","EPOCH":"2026-03-04T15:50:01.339872","MEAN_MOTION":9.89309961,"ECCENTRICITY":0.0013176,"INCLINATION":32.1426,"RA_OF_ASC_NODE":65.2026,"ARG_OF_PERICENTER":111.9785,"MEAN_ANOMALY":248.2114,"EPHEMERIS_TYPE":0,"CLASSIFICATION_TYPE":"U","NORAD_CAT_ID":1361,"ELEMENT_SET_NO":999,"REV_AT_EPOCH":19953,"BSTAR":0.0007902,"MEAN_MOTION_DOT":1.4e-7,"MEAN_MOTION_DDOT":0},{"OBJECT_NAME":"TEMPSAT 1","OBJECT_ID":"1965-065E","EPOCH":"2026-03-04T09:20:36.885984","MEAN_MOTION":13.33588841,"ECCENTRICITY":0.00697386,"INCLINATION":89.9926,"RA_OF_ASC_NODE":212.5891,"ARG_OF_PERICENTER":181.493,"MEAN_ANOMALY":207.1804,"EPHEMERIS_TYPE":0,"CLASSIFICATION_TYPE":"U","NORAD_CAT_ID":1512,"ELEMENT_SET_NO":999,"REV_AT_EPOCH":94608,"BSTAR":5.4419781e-5,"MEAN_MOTION_DOT":3.6e-7,"MEAN_MOTION_DDOT":0},{"OBJECT_NAME":"CALSPHERE 4A","OBJECT_ID":"1965-065H","EPOCH":"2026-03-04T15:23:01.392576","MEAN_MOTION":13.36258177,"ECCENTRICITY":0.0070689,"INCLINATION":89.9042,"RA_OF_ASC_NODE":123.5188,"ARG_OF_PERICENTER":40.3183,"MEAN_ANOMALY":129.956,"EPHEMERIS_TYPE":0,"CLASSIFICATION_TYPE":"U","NORAD_CAT_ID":1520,"ELEMENT_SET_NO":999,"REV_AT_EPOCH":94874,"BSTAR":0.0002393,"MEAN_MOTION_DOT":1.34e-6,"MEAN_MOTION_DDOT":0},{"OBJECT_NAME":"OPS 5712 (P/L 160)","OBJECT_ID":"1967-053A","EPOCH":"2026-03-04T18:02:12.491808","MEAN_MOTION":14.76086856,"ECCENTRICITY":0.000447,"INCLINATION":69.917,"RA_OF_ASC_NODE":293.965,"ARG_OF_PERICENTER":228.1458,"MEAN_ANOMALY":131.9308,"EPHEMERIS_TYPE":0,"CLASSIFICATION_TYPE":"U","NORAD_CAT_ID":2826,"ELEMENT_SET_NO":999,"REV_AT_EPOCH":5081,"BSTAR":0.0015911,"MEAN_MOTION_DOT":0.00010936,"MEAN_MOTION_DDOT":0},{"OBJECT_NAME":"OPS 5712 (P/L 153)","OBJECT_ID":"1967-053H","EPOCH":"2026-03-04T05:09:51.232320","MEAN_MOTION":13.96810576,"ECCENTRICITY":0.00089729,"INCLINATION":69.9764,"RA_OF_ASC_NODE":340.3035,"ARG_OF_PERICENTER":315.4563,"MEAN_ANOMALY":44.582,"EPHEMERIS_TYPE":0,"CLASSIFICATION_TYPE":"U","NORAD_CAT_ID":2874,"ELEMENT_SET_NO":999,"REV_AT_EPOCH":99212,"BSTAR":8.6384637e-5,"MEAN_MOTION_DOT":6.7e-7,"MEAN_MOTION_DDOT":0},{"OBJECT_NAME":"RIGIDSPHERE 2 (LCS 4)","OBJECT_ID":"1971-067E","EPOCH":"2026-03-04T19:11:00.371040","MEAN_MOTION":14.37733384,"ECCENTRICITY":0.0058294,"INCLINATION":87.627,"RA_OF_ASC_NODE":7.7651,"ARG_OF_PERICENTER":217.6309,"MEAN_ANOMALY":142.0805,"EPHEMERIS_TYPE":0,"CLASSIFICATION_TYPE":"U","NORAD_CAT_ID":5398,"ELEMENT_SET_NO":999,"REV_AT_EPOCH":85888,"BSTAR":0.00033691,"MEAN_MOTION_DOT":1.051e-5,"MEAN_MOTION_DDOT":0},{"OBJECT_NAME":"COSMOS 2493 (SKRL-756 1)","OBJECT_ID":"2013-078A","EPOCH":"2026-03-04T19:35:46.191840","MEAN_MOTION":15.01530218,"ECCENTRICITY":0.0011364,"INCLINATION":82.4164,"RA_OF_ASC_NODE":3.2512,"ARG_OF_PERICENTER":232.8618,"MEAN_ANOMALY":127.1569,"EPHEMERIS_TYPE":0,"CLASSIFICATION_TYPE":"U","NORAD_CAT_ID":39490,"ELEMENT_SET_NO":999,"REV_AT_EPOCH":66229,"BSTAR":0.00040163,"MEAN_MOTION_DOT":5.229e-5,"MEAN_MOTION_DDOT":0},{"OBJECT_NAME":"COSMOS 2494 (SKRL-756 2)","OBJECT_ID":"2013-078B","EPOCH":"2026-03-04T19:11:34.125792","MEAN_MOTION":15.04153803,"ECCENTRICITY":0.0015364,"INCLINATION":82.4159,"RA_OF_ASC_NODE":353.0904,"ARG_OF_PERICENTER":193.1656,"MEAN_ANOMALY":166.9172,"EPHEMERIS_TYPE":0,"CLASSIFICATION_TYPE":"U","NORAD_CAT_ID":39491,"ELEMENT_SET_NO":999,"REV_AT_EPOCH":66311,"BSTAR":0.00043982,"MEAN_MOTION_DOT":6.142e-5,"MEAN_MOTION_DDOT":0}]
