CALSPHERE 1             
1 00900U 64063C   26063.78307478  .00000811  00000+0  81846-3 0  9998
2 00900  90.2156  69.3386 0023516 246.7605 167.3058 13.76490538 57060
CALSPHERE 2             
1 00902U 64063E   26063.77119789  .00000037  00000+0  41987-4 0  9998
2 00902  90.2280  73.3209 0019017 164.6597   8.9346 13.52891433842142
LCS 1                   
1 01361U 65034C   26063.65973773  .00000014  00000+0  79020-3 0  9998
2 01361  32.1426  65.2026 0013176 111.9785 248.2114  9.89309961199535
TEMPSAT 1               
1 01512U 65065E   26063.38931581  .00000036  00000+0  54420-4 0  9993
2 01512  89.9926 212.5891 0069738 181.4930 207.1804 13.33588841946084
CALSPHERE 4A            
1 01520U 65065H   26063.64098834  .00000134  00000+0  23930-3 0  9996
2 01520  89.9042 123.5188 0070689  40.3183 129.9560 13.36258177948746
OPS 5712 (P/L 160)      
1 02826U 67053A   26063.75153347  .00010936  00000+0  15911-2 0  9998
2 02826  69.9170 293.9650 0004470 228.1458 131.9308 14.76086856 50811
OPS 5712 (P/L 153)      
1 02874U 67053H   26063.21517630  .00000067  00000+0  86385-4 0  9990
2 02874  69.9764 340.3035 0008972 315.4563  44.5820 13.96810576992127
RIGIDSPHERE 2 (LCS 4)   
1 05398U 71067E   26063.79930985  .00001051  00000+0  33691-3 0  9994
2 05398  87.6270   7.7651 0058294 217.6309 142.0805 14.37733384858889
COSMOS 2493 (SKRL-756 1)
1 39490U 13078A   26063.81650685  .00005229  00000+0  40163-3 0  9994
2 39490  82.4164   3.2512 0011364 232.8618 127.1569 15.01530218662292
COSMOS 2494 (SKRL-756 2)
1 39491U 13078B   26063.79970053  .00006142  00000+0  43982-3 0  9993
2 39491  82.4159 353.0904 0015364 193.1656 166.9172 15.04153803663110
